start=new Date('2021-09-21T00:00:00.000Z').valueOf();
sats=[{"COUNTRY_CODE":"US","SEMIMAJOR_AXIS":"6727.918","PERIAPSIS":"347.453","RCS_SIZE":"MEDIUM","TLE_LINE2":"2 47660  53.0433 104.0562 0003462   9.5695 104.1934 15.73192102 34909","REV_AT_EPOCH":"3490","MEAN_ELEMENT_THEORY":"SGP4","APOAPSIS":"352.112","TLE_LINE1":"1 47660U 21012AS  21263.91667824  .00040968  00000-0  29488-3 0  9997","ARG_OF_PERICENTER":"9.5695","PERIOD":"91.534","ELEMENT_SET_NO":"999","SITE":"AFETR","CENTER_NAME":"EARTH","MEAN_MOTION":"15.73192102","OBJECT_TYPE":"PAYLOAD","MEAN_ANOMALY":"104.1934","NORAD_CAT_ID":"47660","OBJECT_NAME":"STARLINK-2044","GP_ID":"185101837","REF_FRAME":"TEME","DECAY_DATE":null,"RA_OF_ASC_NODE":"104.0562","TIME_SYSTEM":"UTC","CLASSIFICATION_TYPE":"U","LAUNCH_DATE":"2021-02-16","EPHEMERIS_TYPE":"0","EPOCH":"2021-09-20T22:00:00.999936","MEAN_MOTION_DDOT":"0.0000000000000","MEAN_MOTION_DOT":"0.00040968","FILE":"3121322","INCLINATION":"53.0433","OBJECT_ID":"2021-012AS","ECCENTRICITY":"0.00034620","BSTAR":"0.00029488000000"},{"TLE_LINE2":"2 47661  53.0544 172.4317 0001931  59.1364 284.9585 15.06392032 33956","RCS_SIZE":"LARGE","REV_AT_EPOCH":"3395","SEMIMAJOR_AXIS":"6925.373","COUNTRY_CODE":"US","PERIAPSIS":"545.901","MEAN_MOTION":"15.06392032","CENTER_NAME":"EARTH","OBJECT_TYPE":"PAYLOAD","MEAN_ANOMALY":"284.9585","NORAD_CAT_ID":"47661","APOAPSIS":"548.575","MEAN_ELEMENT_THEORY":"SGP4","TLE_LINE1":"1 47661U 21012AT  21263.91667824 -.00031189  00000-0 -20845-2 0  9992","PERIOD":"95.593","ARG_OF_PERICENTER":"59.1364","ELEMENT_SET_NO":"999","SITE":"AFETR","REF_FRAME":"TEME","DECAY_DATE":null,"RA_OF_ASC_NODE":"172.4317","TIME_SYSTEM":"UTC","CLASSIFICATION_TYPE":"U","OBJECT_NAME":"STARLINK-2051","GP_ID":"185101846","FILE":"3121322","INCLINATION":"53.0544","OBJECT_ID":"2021-012AT","ECCENTRICITY":"0.00019310","BSTAR":"-0.00208450000000","LAUNCH_DATE":"2021-02-16","EPHEMERIS_TYPE":"0","EPOCH":"2021-09-20T22:00:00.999936","MEAN_MOTION_DDOT":"0.0000000000000","MEAN_MOTION_DOT":"-0.00031189"},{"SITE":"AFETR","ELEMENT_SET_NO":"999","PERIOD":"95.592","ARG_OF_PERICENTER":"60.2830","MEAN_ELEMENT_THEORY":"SGP4","APOAPSIS":"548.571","TLE_LINE1":"1 47662U 21012AU  21263.91667824 -.00031802  00000-0 -21257-2 0  9993","NORAD_CAT_ID":"47662","OBJECT_TYPE":"PAYLOAD","MEAN_ANOMALY":"28.9536","MEAN_MOTION":"15.06398364","CENTER_NAME":"EARTH","PERIAPSIS":"545.866","SEMIMAJOR_AXIS":"6925.354","COUNTRY_CODE":"US","REV_AT_EPOCH":"3395","TLE_LINE2":"2 47662  53.0561 172.4428 0001953  60.2830  28.9536 15.06398364 33950","RCS_SIZE":"MEDIUM","MEAN_MOTION_DDOT":"0.0000000000000","MEAN_MOTION_DOT":"-0.00031802","EPHEMERIS_TYPE":"0","EPOCH":"2021-09-20T22:00:00.999936","LAUNCH_DATE":"2021-02-16","BSTAR":"-0.00212570000000","ECCENTRICITY":"0.00019530","FILE":"3121322","INCLINATION":"53.0561","OBJECT_ID":"2021-012AU","GP_ID":"185101836","OBJECT_NAME":"STARLINK-2052","TIME_SYSTEM":"UTC","CLASSIFICATION_TYPE":"U","DECAY_DATE":null,"RA_OF_ASC_NODE":"172.4428","REF_FRAME":"TEME"},{"MEAN_MOTION_DOT":"0.00130127","MEAN_MOTION_DDOT":"0.0000000000000","EPOCH":"2021-09-20T22:00:00.999936","EPHEMERIS_TYPE":"0","LAUNCH_DATE":"2021-02-16","BSTAR":"0.00091967000000","ECCENTRICITY":"0.00042400","INCLINATION":"53.0430","OBJECT_ID":"2021-012AV","FILE":"3121322","GP_ID":"185101540","OBJECT_NAME":"STARLINK-2053","CLASSIFICATION_TYPE":"U","TIME_SYSTEM":"UTC","RA_OF_ASC_NODE":"104.0623","DECAY_DATE":null,"REF_FRAME":"TEME","SITE":"AFETR","ELEMENT_SET_NO":"999","PERIOD":"91.537","ARG_OF_PERICENTER":"2.1074","TLE_LINE1":"1 47663U 21012AV  21263.91667824  .00130127  00000-0  91967-3 0  9998","APOAPSIS":"352.821","MEAN_ELEMENT_THEORY":"SGP4","NORAD_CAT_ID":"47663","MEAN_ANOMALY":"106.9958","OBJECT_TYPE":"PAYLOAD","MEAN_MOTION":"15.73127018","CENTER_NAME":"EARTH","PERIAPSIS":"347.116","SEMIMAJOR_AXIS":"6728.103","COUNTRY_CODE":"US","REV_AT_EPOCH":"3490","TLE_LINE2":"2 47663  53.0430 104.0623 0004240   2.1074 106.9958 15.73127018 34902","RCS_SIZE":"LARGE"},{"MEAN_MOTION_DOT":"-0.00032334","MEAN_MOTION_DDOT":"0.0000000000000","EPOCH":"2021-09-20T22:00:00.999936","EPHEMERIS_TYPE":"0","LAUNCH_DATE":"2021-02-16","BSTAR":"-0.00216180000000","ECCENTRICITY":"0.00021470","INCLINATION":"53.0560","OBJECT_ID":"2021-012AW","FILE":"3121322","GP_ID":"185101842","OBJECT_NAME":"STARLINK-2054","CLASSIFICATION_TYPE":"U","TIME_SYSTEM":"UTC","RA_OF_ASC_NODE":"172.4496","DECAY_DATE":null,"REF_FRAME":"TEME","SITE":"AFETR","ELEMENT_SET_NO":"999","ARG_OF_PERICENTER":"63.8701","PERIOD":"95.592","TLE_LINE1":"1 47664U 21012AW  21263.91667824 -.00032334  00000-0 -21618-2 0  9997","MEAN_ELEMENT_THEORY":"SGP4","APOAPSIS":"548.713","NORAD_CAT_ID":"47664","MEAN_ANOMALY":"20.2438","OBJECT_TYPE":"PAYLOAD","MEAN_MOTION":"15.06395981","CENTER_NAME":"EARTH","PERIAPSIS":"545.739","COUNTRY_CODE":"US","SEMIMAJOR_AXIS":"6925.361","REV_AT_EPOCH":"3395","TLE_LINE2":"2 47664  53.0560 172.4496 0002147  63.8701  20.2438 15.06395981 33956","RCS_SIZE":"LARGE"},{"FILE":"3121356","INCLINATION":"53.0496","OBJECT_ID":"2021-012AX","BSTAR":"-0.00174420000000","ECCENTRICITY":"0.00050090","EPHEMERIS_TYPE":"0","EPOCH":"2021-09-20T22:00:00.999936","LAUNCH_DATE":"2021-02-16","MEAN_MOTION_DDOT":"0.0000000000000","MEAN_MOTION_DOT":"-0.00026182","REF_FRAME":"TEME","TIME_SYSTEM":"UTC","CLASSIFICATION_TYPE":"U","DECAY_DATE":null,"RA_OF_ASC_NODE":"167.4557","OBJECT_NAME":"STARLINK-2056","GP_ID":"185123084","CENTER_NAME":"EARTH","MEAN_MOTION":"15.06410303","NORAD_CAT_ID":"47665","OBJECT_TYPE":"PAYLOAD","MEAN_ANOMALY":"17.4218","PERIOD":"95.591","ARG_OF_PERICENTER":"199.3804","MEAN_ELEMENT_THEORY":"SGP4","APOAPSIS":"550.651","TLE_LINE1":"1 47665U 21012AX  21263.91667824 -.00026182  00000-0 -17442-2 0  9992","ELEMENT_SET_NO":"999","SITE":"AFETR","RCS_SIZE":"LARGE","TLE_LINE2":"2 47665  53.0496 167.4557 0005009 199.3804  17.4218 15.06410303  3593","REV_AT_EPOCH":"359","SEMIMAJOR_AXIS":"6925.317","COUNTRY_CODE":"US","PERIAPSIS":"543.713"},{"REF_FRAME":"TEME","DECAY_DATE":null,"RA_OF_ASC_NODE":"167.4350","TIME_SYSTEM":"UTC","CLASSIFICATION_TYPE":"U","OBJECT_NAME":"STARLINK-2057","GP_ID":"185124336","FILE":"3121356","INCLINATION":"53.0544","OBJECT_ID":"2021-012AY","ECCENTRICITY":"0.00017020","BSTAR":"-0.00219010000000","LAUNCH_DATE":"2021-02-16","EPHEMERIS_TYPE":"0","EPOCH":"2021-09-20T22:00:00.999936","MEAN_MOTION_DDOT":"0.0000000000000","MEAN_MOTION_DOT":"-0.00032761","RCS_SIZE":"MEDIUM","TLE_LINE2":"2 47666  53.0544 167.4350 0001702  58.5974 338.1865 15.06407628  3574","REV_AT_EPOCH":"357","COUNTRY_CODE":"US","SEMIMAJOR_AXIS":"6925.325","PERIAPSIS":"546.011","MEAN_MOTION":"15.06407628","CENTER_NAME":"EARTH","OBJECT_TYPE":"PAYLOAD","MEAN_ANOMALY":"338.1865","NORAD_CAT_ID":"47666","MEAN_ELEMENT_THEORY":"SGP4","APOAPSIS":"548.369","TLE_LINE1":"1 47666U 21012AY  21263.91667824 -.00032761  00000-0 -21901-2 0  9998","PERIOD":"95.592","ARG_OF_PERICENTER":"58.5974","ELEMENT_SET_NO":"999","SITE":"AFETR"},{"CLASSIFICATION_TYPE":"U","TIME_SYSTEM":"UTC","RA_OF_ASC_NODE":"192.4429","DECAY_DATE":null,"REF_FRAME":"TEME","GP_ID":"185101855","OBJECT_NAME":"STARLINK-2058","BSTAR":"-0.00147510000000","ECCENTRICITY":"0.00019420","INCLINATION":"53.0555","OBJECT_ID":"2021-012AZ","FILE":"3121323","MEAN_MOTION_DOT":"-0.00022191","MEAN_MOTION_DDOT":"0.0000000000000","EPOCH":"2021-09-20T22:00:00.999936","EPHEMERIS_TYPE":"0","LAUNCH_DATE":"2021-02-16","REV_AT_EPOCH":"3367","TLE_LINE2":"2 47667  53.0555 192.4429 0001942  78.3440 195.8130 15.06408305 33676","RCS_SIZE":"LARGE","PERIAPSIS":"545.843","COUNTRY_CODE":"US","SEMIMAJOR_AXIS":"6925.323","NORAD_CAT_ID":"47667","MEAN_ANOMALY":"195.8130","OBJECT_TYPE":"PAYLOAD","MEAN_MOTION":"15.06408305","CENTER_NAME":"EARTH","ELEMENT_SET_NO":"999","SITE":"AFETR","ARG_OF_PERICENTER":"78.3440","PERIOD":"95.592","TLE_LINE1":"1 47667U 21012AZ  21263.91667824 -.00022191  00000-0 -14751-2 0  9990","MEAN_ELEMENT_THEORY":"SGP4","APOAPSIS":"548.533"},{"REF_FRAME":"TEME","TIME_SYSTEM":"UTC","CLASSIFICATION_TYPE":"U","DECAY_DATE":null,"RA_OF_ASC_NODE":"172.4563","OBJECT_NAME":"STARLINK-2059","GP_ID":"185122834","FILE":"3121356","INCLINATION":"53.0554","OBJECT_ID":"2021-012BA","BSTAR":"-0.00215780000000","ECCENTRICITY":"0.00021720","EPHEMERIS_TYPE":"0","EPOCH":"2021-09-20T22:00:00.999936","LAUNCH_DATE":"2021-02-16","MEAN_MOTION_DDOT":"0.0000000000000","MEAN_MOTION_DOT":"-0.00032293","RCS_SIZE":"LARGE","TLE_LINE2":"2 47668  53.0554 172.4563 0002172  65.1666 338.9947 15.06416608  3570","REV_AT_EPOCH":"357","COUNTRY_CODE":"US","SEMIMAJOR_AXIS":"6925.298","PERIAPSIS":"545.658","MEAN_MOTION":"15.06416608","CENTER_NAME":"EARTH","NORAD_CAT_ID":"47668","OBJECT_TYPE":"PAYLOAD","MEAN_ANOMALY":"338.9947","PERIOD":"95.591","ARG_OF_PERICENTER":"65.1666","MEAN_ELEMENT_THEORY":"SGP4","APOAPSIS":"548.667","TLE_LINE1":"1 47668U 21012BA  21263.91667824 -.00032293  00000-0 -21578-2 0  9990","SITE":"AFETR","ELEMENT_SET_NO":"999"},{"EPOCH":"2021-09-20T22:00:00.999936","EPHEMERIS_TYPE":"0","LAUNCH_DATE":"2021-02-16","MEAN_MOTION_DOT":"-0.00832069","MEAN_MOTION_DDOT":"0.0000000000000","INCLINATION":"53.0434","OBJECT_ID":"2021-012BB","FILE":"3121356","BSTAR":"-0.00866280000000","ECCENTRICITY":"0.00009760","OBJECT_NAME":"STARLINK-2060","GP_ID":"185123585","REF_FRAME":"TEME","CLASSIFICATION_TYPE":"U","TIME_SYSTEM":"UTC","RA_OF_ASC_NODE":"104.1230","DECAY_DATE":null,"ARG_OF_PERICENTER":"82.6515","PERIOD":"91.926","TLE_LINE1":"1 47669U 21012BB  21263.91667824 -.00832069  00000-0 -86628-2 0  9997","MEAN_ELEMENT_THEORY":"SGP4","APOAPSIS":"369.650","ELEMENT_SET_NO":"999","SITE":"AFETR","MEAN_MOTION":"15.66478827","CENTER_NAME":"EARTH","NORAD_CAT_ID":"47669","MEAN_ANOMALY":"349.0127","OBJECT_TYPE":"PAYLOAD","COUNTRY_CODE":"US","SEMIMAJOR_AXIS":"6747.126","PERIAPSIS":"368.333","RCS_SIZE":"MEDIUM","TLE_LINE2":"2 47669  53.0434 104.1230 0000976  82.6515 349.0127 15.66478827  3679","REV_AT_EPOCH":"367"}];
